     3.04           N: GNSS NAV DATA    M: Mixed            RINEX VERSION / TYPE
CONVBIN 2.4.3                           20251027 030756 UTC PGM / RUN BY / DATE 
format: u-blox UBX                                          COMMENT             
log: D:\GPdata\10_27\fingure_190_rev_10_27_2.ubx            COMMENT             
                                                            END OF HEADER       
G23 2025 10 27 04 00 00  .563287641853D-03  .545696821064D-11  .000000000000D+00
      .183000000000D+03 -.837187500000D+02  .391909181733D-08 -.458605756028D-01
     -.449828803539D-05  .585849687923D-02  .509247183800D-05  .515368706703D+04
      .100800000000D+06  .596046447754D-07  .602323296269D-01  .856816768646D-07
      .986632169739D+00  .294968750000D+03 -.280518528151D+01 -.795354558281D-08
     -.216437586923D-09  .100000000000D+01  .239000000000D+04  .000000000000D+00
      .200000000000D+01  .000000000000D+00 -.838190317154D-08  .951000000000D+03
      .969360000000D+05  .400000000000D+01
G10 2025 10 27 04 00 00 -.552599318326D-03 -.591171556152D-11  .000000000000D+00
      .480000000000D+02 -.812500000000D+02  .372444085220D-08 -.118628065376D+01
     -.428035855293D-05  .107343755662D-01  .558793544769D-05  .515364988708D+04
      .100800000000D+06  .320374965668D-06  .916990274954D-01  .124797224998D-06
      .991596510558D+00  .287656250000D+03 -.230751841464D+01 -.771353558543D-08
     -.201436962087D-09  .100000000000D+01  .239000000000D+04  .000000000000D+00
      .200000000000D+01  .000000000000D+00  .232830643654D-08  .480000000000D+02
      .969360000000D+05  .400000000000D+01
G25 2025 10 27 04 00 00  .464865937829D-03 -.193267624127D-11  .000000000000D+00
      .260000000000D+02  .218750000000D+02  .495913513931D-08 -.482368605869D+00
      .123307108879D-05  .125875299564D-01  .839307904243D-05  .515377660751D+04
      .100800000000D+06 -.260770320892D-07 -.308229737127D+01  .134110450745D-06
      .948307427485D+00  .217562500000D+03  .113424313479D+01 -.824534345165D-08
     -.222509268404D-09  .100000000000D+01  .239000000000D+04  .000000000000D+00
      .200000000000D+01  .000000000000D+00  .558793544769D-08  .260000000000D+02
      .969360000000D+05  .400000000000D+01
G12 2025 10 27 04 00 00 -.602212734520D-03 -.795807864051D-12  .000000000000D+00
      .330000000000D+02  .314062500000D+02  .460483466699D-08 -.435969016637D+00
      .149942934513D-05  .885944266338D-02  .886619091034D-05  .515361079025D+04
      .100800000000D+06 -.819563865662D-07 -.298993413947D+01  .558793544769D-07
      .960037824400D+00  .215125000000D+03  .152082208700D+01 -.800033324599D-08
     -.219294848796D-09  .100000000000D+01  .239000000000D+04  .000000000000D+00
      .200000000000D+01  .000000000000D+00 -.125728547573D-07  .330000000000D+02
      .969360000000D+05  .400000000000D+01
G32 2025 10 27 04 00 00 -.272628385574D-03  .147792889038D-10  .000000000000D+00
      .290000000000D+02 -.532187500000D+02  .412195741036D-08 -.246491739590D+01
     -.264868140221D-05  .879447127227D-02  .824593007565D-05  .515367665672D+04
      .100800000000D+06  .540167093277D-07  .111947638556D+01 -.707805156708D-07
      .966210785712D+00  .224156250000D+03 -.205906258011D+01 -.755102881637D-08
      .360372153804D-09  .100000000000D+01  .239000000000D+04  .000000000000D+00
      .200000000000D+01  .000000000000D+00  .931322574615D-09  .290000000000D+02
      .969360000000D+05  .400000000000D+01
G24 2025 10 27 04 00 00 -.257961917669D-03  .126192389871D-10  .000000000000D+00
      .800000000000D+02 -.135625000000D+02  .533200781381D-08  .120325178207D+01
     -.800937414169D-06  .176266985945D-01  .698119401932D-05  .515365490913D+04
      .100800000000D+06 -.298023223877D-06  .207003405170D+01  .111758708954D-07
      .934367048504D+00  .235281250000D+03  .110970765939D+01 -.852535511526D-08
      .853606984729D-10  .100000000000D+01  .239000000000D+04  .000000000000D+00
      .200000000000D+01  .000000000000D+00  .232830643654D-08  .800000000000D+02
      .969360000000D+05  .400000000000D+01
G28 2025 10 27 04 00 00 -.635243486613D-03  .181898940355D-11  .000000000000D+00
      .235000000000D+03 -.130625000000D+02  .454161774804D-08  .768147108639D-01
     -.581145286560D-06  .426603946835D-03  .678934156895D-05  .515370154762D+04
      .100800000000D+06  .391155481339D-07  .214907638157D+01  .000000000000D+00
      .961470180658D+00  .247531250000D+03  .547707799645D+00 -.790318634229D-08
      .190007914592D-09  .100000000000D+01  .239000000000D+04  .000000000000D+00
      .200000000000D+01  .000000000000D+00 -.931322574615D-08  .747000000000D+03
      .969360000000D+05  .400000000000D+01
G18 2025 10 27 04 00 00 -.518983695656D-03  .100044417195D-10  .000000000000D+00
      .169000000000D+03  .338125000000D+02  .443768484739D-08  .990165893710D+00
      .185705721378D-05  .568894168828D-02  .256672501564D-05  .515366847229D+04
      .100800000000D+06  .298023223877D-07 -.944744660202D+00  .186264514923D-08
      .972663939723D+00  .333437500000D+03 -.287640682500D+01 -.829641700764D-08
     -.123933733766D-09  .100000000000D+01  .239000000000D+04  .000000000000D+00
      .200000000000D+01  .000000000000D+00 -.838190317154D-08  .681000000000D+03
      .969360000000D+05  .400000000000D+01
C23 2025 10 27 02 00 00 -.568819930777D-03  .102984287764D-10  .000000000000D+00
      .100000000000D+01 -.676562500000D+01  .436875340469D-08 -.847338580082D-01
     -.287778675556D-06  .236153369769D-03  .693835318089D-05  .528264004326D+04
      .936000000000D+05  .246800482273D-07  .271625610507D+01 -.232830643654D-07
      .944324732493D+00  .214109375000D+03  .259566786581D+00 -.685957144297D-08
     -.118576367753D-09  .000000000000D+00  .103400000000D+04  .000000000000D+00
      .200000000000D+01  .000000000000D+00  .239000000000D-07  .239000000000D-07
      .969000000000D+05  .100000000000D+01
C32 2025 10 27 02 00 00 -.958192162216D-03 -.254551935086D-11  .000000000000D+00
      .100000000000D+01 -.925937500000D+02  .308619998119D-08  .193654647961D+01
     -.449875369668D-05  .271713244729D-03  .761169940233D-05  .528263473701D+04
      .936000000000D+05 -.880099833012D-07  .623811865868D+00 -.330619513988D-07
      .984713062600D+00  .221828125000D+03 -.497383328481D+00 -.632347768394D-08
      .137505727665D-09  .000000000000D+00  .103400000000D+04  .000000000000D+00
      .200000000000D+01  .000000000000D+00 -.570000000000D-08 -.570000000000D-08
      .969000000000D+05  .100000000000D+01
C25 2025 10 27 02 00 00  .892959185876D-03  .114548370789D-10  .000000000000D+00
      .100000000000D+01 -.406250000000D+01  .432089426830D-08  .121647740122D+00
     -.334344804287D-06  .666964682750D-03  .706920400262D-05  .528265596390D+04
      .936000000000D+05  .745058059692D-08  .269322174894D+01  .200234353542D-07
      .945896497529D+00  .213609375000D+03  .814245203621D+00 -.682957019330D-08
     -.132148361653D-09  .000000000000D+00  .103400000000D+04  .000000000000D+00
      .200000000000D+01  .000000000000D+00  .240000000000D-08  .240000000000D-08
      .969000000000D+05  .100000000000D+01
C37 2025 10 27 02 00 00 -.886647263542D-03 -.122302168393D-11  .000000000000D+00
      .100000000000D+01 -.720312500000D+01  .430732227440D-08 -.563854392216D+00
     -.313855707645D-06  .646679545753D-03  .688713043928D-05  .528262814713D+04
      .936000000000D+05 -.279396772385D-08  .271567641208D+01 -.279396772385D-07
      .945793487615D+00  .212468750000D+03 -.117224313263D-01 -.687707217195D-08
     -.113576159474D-09  .000000000000D+00  .103400000000D+04  .000000000000D+00
      .200000000000D+01  .000000000000D+00 -.149000000000D-07 -.149000000000D-07
      .969000000000D+05  .100000000000D+01
C08 2025 10 27 02 00 00 -.797530170530D-03  .248432385774D-10  .000000000000D+00
      .100000000000D+01 -.480500000000D+03  .389301930274D-09 -.866638428203D+00
     -.160722993314D-04  .366710510571D-02  .490387901664D-05  .649323021507D+04
      .936000000000D+05  .215135514736D-06  .135328955851D+00 -.828877091408D-07
      .108412997336D+01  .139109375000D+03 -.313154372301D+01 -.177471678122D-08
     -.222509268404D-09  .000000000000D+00  .103400000000D+04  .000000000000D+00
      .200000000000D+01  .000000000000D+00  .112000000000D-07 -.700000000000D-09
      .969000000000D+05  .000000000000D+00
C13 2025 10 27 02 00 00 -.175155350007D-03 -.136965994102D-10  .000000000000D+00
      .100000000000D+01 -.454187500000D+03  .549308595194D-09 -.189232786278D+01
     -.150352716446D-04  .571446574759D-02  .389013439417D-05  .649363798714D+04
      .936000000000D+05  .142958015203D-06  .100516249808D+00 -.137370079756D-06
      .104605507118D+01  .156875000000D+03 -.230621096525D+01 -.180757529277D-08
     -.166792661870D-09  .000000000000D+00  .103400000000D+04  .000000000000D+00
      .200000000000D+01  .000000000000D+00 -.970000000000D-08  .270000000000D-08
      .969000000000D+05  .000000000000D+00
C06 2025 10 27 02 00 00  .794456456788D-03 -.297006863548D-10  .000000000000D+00
      .100000000000D+01 -.760468750000D+02  .152470636728D-08  .265089502458D+01
     -.207731500268D-05  .501370965503D-02  .844663009048D-05  .649300419998D+04
      .936000000000D+05  .372529029846D-07  .227729990334D+01 -.535510480404D-07
      .947180556318D+00 -.230781250000D+02 -.253206785196D+01 -.182543317948D-08
      .181078971237D-09  .000000000000D+00  .103400000000D+04  .000000000000D+00
      .200000000000D+01  .000000000000D+00  .840000000000D-08 -.160000000000D-08
      .969000000000D+05  .000000000000D+00
C16 2025 10 27 02 00 00 -.926856184378D-03  .101127994867D-10  .000000000000D+00
      .100000000000D+01 -.839375000000D+02  .143970282654D-08  .240697323399D+01
     -.235764309764D-05  .908124900889D-02  .870367512107D-05  .649340349007D+04
      .936000000000D+05  .577419996262D-07  .227744779705D+01 -.637955963612D-07
      .962740640161D+00 -.244062500000D+02 -.218004523671D+01 -.173471511499D-08
      .171792870148D-09  .000000000000D+00  .103400000000D+04  .000000000000D+00
      .200000000000D+01  .000000000000D+00 -.270000000000D-08  .480000000000D-08
      .969000000000D+05  .000000000000D+00
C09 2025 10 27 02 00 00 -.120542244986D-04  .345172779248D-10  .000000000000D+00
      .100000000000D+01 -.717187500000D+02  .151292016205D-08  .209301475677D+01
     -.193761661649D-05  .146848749137D-01  .841589644551D-05  .649298107719D+04
      .936000000000D+05 -.707805156708D-07  .232429223480D+01 -.171363353729D-06
      .952464442333D+00 -.259531250000D+02 -.226721503472D+01 -.184186243525D-08
      .141077305007D-09  .000000000000D+00  .103400000000D+04  .000000000000D+00
      .200000000000D+01  .000000000000D+00  .660000000000D-08  .390000000000D-08
      .969000000000D+05  .000000000000D+00
